{"fetched_at":"2026-03-29T16:36:15Z","count":15609,"tles":[{"name":"KUIPER-00197","line1":"1 67769U 26030F   26087.80638418  .00031080  00000+0  85246-3 0  9996","line2":"2 67769  51.8836 126.7206 0002671  78.8970 281.2317 15.37002751  8033","category":"Other"}]}