{
  "norad_id": 67769,
  "name": "KUIPER-00197",
  "history": [
    {
      "epoch": "2026-03-28T19:21:11.593152",
      "apogee_km": 456.8037011593442,
      "perigee_km": 453.1527676895912,
      "latitude_deg": 51.09744526146911,
      "longitude_deg": -45.68711872003041,
      "semi_major_axis_km": 6833.115234424467,
      "eccentricity": 0.00026715,
      "inclination_deg": 51.8836,
      "raan_deg": 126.7206,
      "arg_perigee_deg": 78.897,
      "mean_anomaly_deg": 281.2317,
      "mean_motion_rev_day": 15.37002751
    }
  ]
}